{"type": "FeatureCollection", "features": [ {"type": "Feature", "properties": {"norad_id": 66561, "name": "STARLINK-35305", "group": "last-30-days", "lat": -35.90859493353276, "lon": 50.484510230637134, "alt_km": 343.5564215068389, "timestamp": "2025-12-02T21:34:00.043155+00:00", "meta": {"OBJECT_NAME": "STARLINK-35305", "OBJECT_ID": "2025-268E", "EPOCH": "2025-12-02T12:00:05.998752", "MEAN_MOTION": 15.77398062, "ECCENTRICITY": 0.0001561, "INCLINATION": 42.9974, "RA_OF_ASC_NODE": 181.9088, "ARG_OF_PERICENTER": 272.38, "MEAN_ANOMALY": 221.9627, "EPHEMERIS_TYPE": 0, "CLASSIFICATION_TYPE": "U", "NORAD_CAT_ID": 66561, "ELEMENT_SET_NO": 999, "REV_AT_EPOCH": 297, "BSTAR": -0.010178, "MEAN_MOTION_DOT": -0.01524111, "MEAN_MOTION_DDOT": 0}, "tle": {"line1": "1 66561U 25268E   25336.50006943 -.01524111  00000+0 -10178-1 0  9997", "line2": "2 66561  42.9974 181.9088 0001561 272.3800 221.9627 15.77398062  2976"}}, "geometry": {"type": "Point", "coordinates": [50.484510230637134, -35.90859493353276]}}, {"type": "Feature", "properties": {"norad_id": 66562, "name": "STARLINK-35579", "group": "last-30-days", "lat": -35.056836152696754, "lon": 48.347370735918936, "alt_km": 343.45387111765103, "timestamp": "2025-12-02T21:34:00.043165+00:00", "meta": {"OBJECT_NAME": "STARLINK-35579", "OBJECT_ID": "2025-268F", "EPOCH": "2025-12-02T12:00:05.998752", "MEAN_MOTION": 15.77412926, "ECCENTRICITY": 0.0001557, "INCLINATION": 42.9973, "RA_OF_ASC_NODE": 181.9134, "ARG_OF_PERICENTER": 270.5132, "MEAN_ANOMALY": 221.8602, "EPHEMERIS_TYPE": 0, "CLASSIFICATION_TYPE": "U", "NORAD_CAT_ID": 66562, "ELEMENT_SET_NO": 999, "REV_AT_EPOCH": 302, "BSTAR": -0.010124, "MEAN_MOTION_DOT": -0.01517965, "MEAN_MOTION_DDOT": 0}, "tle": {"line1": "1 66562U 25268F   25336.50006943 -.01517965  00000+0 -10124-1 0  9998", "line2": "2 66562  42.9973 181.9134 0001557 270.5132 221.8602 15.77412926  3026"}}, "geometry": {"type": "Point", "coordinates": [48.347370735918936, -35.056836152696754]}}, {"type": "Feature", "properties": {"norad_id": 66563, "name": "STARLINK-35437", "group": "last-30-days", "lat": -36.7333173964064, "lon": 52.69971230329785, "alt_km": 343.6357241855467, "timestamp": "2025-12-02T21:34:00.043174+00:00", "meta": {"OBJECT_NAME": "STARLINK-35437", "OBJECT_ID": "2025-268G", "EPOCH": "2025-12-02T12:00:05.998752", "MEAN_MOTION": 15.77361185, "ECCENTRICITY": 0.0001545, "INCLINATION": 42.9973, "RA_OF_ASC_NODE": 181.9032, "ARG_OF_PERICENTER": 265.7303, "MEAN_ANOMALY": 230.6432, "EPHEMERIS_TYPE": 0, "CLASSIFICATION_TYPE": "U", "NORAD_CAT_ID": 66563, "ELEMENT_SET_NO": 999, "REV_AT_EPOCH": 302, "BSTAR": -0.010282, "MEAN_MOTION_DOT": -0.0153557, "MEAN_MOTION_DDOT": 0}, "tle": {"line1": "1 66563U 25268G   25336.50006943 -.01535570  00000+0 -10282-1 0  9996", "line2": "2 66563  42.9973 181.9032 0001545 265.7303 230.6432 15.77361185  3026"}}, "geometry": {"type": "Point", "coordinates": [52.69971230329785, -36.7333173964064]}}, {"type": "Feature", "properties": {"norad_id": 66564, "name": "STARLINK-35358", "group": "last-30-days", "lat": -37.50158896487538, "lon": 54.91991416881343, "alt_km": 343.6895681189908, "timestamp": "2025-12-02T21:34:00.043187+00:00", "meta": {"OBJECT_NAME": "STARLINK-35358", "OBJECT_ID": "2025-268H", "EPOCH": "2025-12-02T12:00:05.998752", "MEAN_MOTION": 15.773452, "ECCENTRICITY": 0.0001624, "INCLINATION": 42.9971, "RA_OF_ASC_NODE": 181.8985, "ARG_OF_PERICENTER": 268.9096, "MEAN_ANOMALY": 229.4244, "EPHEMERIS_TYPE": 0, "CLASSIFICATION_TYPE": "U", "NORAD_CAT_ID": 66564, "ELEMENT_SET_NO": 999, "REV_AT_EPOCH": 297, "BSTAR": -0.010295, "MEAN_MOTION_DOT": -0.0153629, "MEAN_MOTION_DDOT": 0}, "tle": {"line1": "1 66564U 25268H   25336.50006943 -.01536290  00000+0 -10295-1 0  9991", "line2": "2 66564  42.9971 181.8985 0001624 268.9096 229.4244 15.77345200  2973"}}, "geometry": {"type": "Point", "coordinates": [54.91991416881343, -37.50158896487538]}}, {"type": "Feature", "properties": {"norad_id": 66565, "name": "STARLINK-35893", "group": "last-30-days", "lat": -38.23138086891924, "lon": 57.196490295285656, "alt_km": 343.8265121473105, "timestamp": "2025-12-02T21:34:00.043197+00:00", "meta": {"OBJECT_NAME": "STARLINK-35893", "OBJECT_ID": "2025-268J", "EPOCH": "2025-12-02T12:00:05.998752", "MEAN_MOTION": 15.77329744, "ECCENTRICITY": 0.0001578, "INCLINATION": 42.9974, "RA_OF_ASC_NODE": 181.8934, "ARG_OF_PERICENTER": 269.9205, "MEAN_ANOMALY": 230.3922, "EPHEMERIS_TYPE": 0, "CLASSIFICATION_TYPE": "U", "NORAD_CAT_ID": 66565, "ELEMENT_SET_NO": 999, "REV_AT_EPOCH": 302, "BSTAR": -0.010418, "MEAN_MOTION_DOT": -0.01551317, "MEAN_MOTION_DDOT": 0}, "tle": {"line1": "1 66565U 25268J   25336.50006943 -.01551317  00000+0 -10418-1 0  9996", "line2": "2 66565  42.9974 181.8934 0001578 269.9205 230.3922 15.77329744  3028"}}, "geometry": {"type": "Point", "coordinates": [57.196490295285656, -38.23138086891924]}}, {"type": "Feature", "properties": {"norad_id": 66566, "name": "STARLINK-35871", "group": "last-30-days", "lat": -38.93724412706362, "lon": 59.593414874802136, "alt_km": 343.7817401330176, "timestamp": "2025-12-02T21:34:00.043207+00:00", "meta": {"OBJECT_NAME": "STARLINK-35871", "OBJECT_ID": "2025-268K", "EPOCH": "2025-12-02T12:00:05.998752", "MEAN_MOTION": 15.77199199, "ECCENTRICITY": 0.0001721, "INCLINATION": 42.9976, "RA_OF_ASC_NODE": 181.8883, "ARG_OF_PERICENTER": 268.6329, "MEAN_ANOMALY": 233.7844, "EPHEMERIS_TYPE": 0, "CLASSIFICATION_TYPE": "U", "NORAD_CAT_ID": 66566, "ELEMENT_SET_NO": 999, "REV_AT_EPOCH": 302, "BSTAR": -0.0094961, "MEAN_MOTION_DOT": -0.014226, "MEAN_MOTION_DDOT": 0}, "tle": {"line1": "1 66566U 25268K   25336.50006943 -.01422600  00000+0 -94961-2 0  9995", "line2": "2 66566  42.9976 181.8883 0001721 268.6329 233.7844 15.77199199  3026"}}, "geometry": {"type": "Point", "coordinates": [59.593414874802136, -38.93724412706362]}}, {"type": "Feature", "properties": {"norad_id": 66567, "name": "STARLINK-35825", "group": "last-30-days", "lat": -39.58084697269524, "lon": 61.99097343885593, "alt_km": 343.9617708376445, "timestamp": "2025-12-02T21:34:00.043219+00:00", "meta": {"OBJECT_NAME": "STARLINK-35825", "OBJECT_ID": "2025-268L", "EPOCH": "2025-12-02T12:00:05.998752", "MEAN_MOTION": 15.77140396, "ECCENTRICITY": 0.0001665, "INCLINATION": 42.9974, "RA_OF_ASC_NODE": 181.8832, "ARG_OF_PERICENTER": 271.0314, "MEAN_ANOMALY": 233.4257, "EPHEMERIS_TYPE": 0, "CLASSIFICATION_TYPE": "U", "NORAD_CAT_ID": 66567, "ELEMENT_SET_NO": 999, "REV_AT_EPOCH": 302, "BSTAR": -0.0093486, "MEAN_MOTION_DOT": -0.01399656, "MEAN_MOTION_DDOT": 0}, "tle": {"line1": "1 66567U 25268L   25336.50006943 -.01399656  00000+0 -93486-2 0  9991", "line2": "2 66567  42.9974 181.8832 0001665 271.0314 233.4257 15.77140396  3028"}}, "geometry": {"type": "Point", "coordinates": [61.99097343885593, -39.58084697269524]}}, {"type": "Feature", "properties": {"norad_id": 66568, "name": "STARLINK-35803", "group": "last-30-days", "lat": -40.17180523714875, "lon": 64.42228103103308, "alt_km": 344.37596604197097, "timestamp": "2025-12-02T21:34:00.043229+00:00", "meta": {"OBJECT_NAME": "STARLINK-35803", "OBJECT_ID": "2025-268M", "EPOCH": "2025-12-02T12:00:05.998752", "MEAN_MOTION": 15.77074588, "ECCENTRICITY": 0.0001536, "INCLINATION": 42.9971, "RA_OF_ASC_NODE": 181.8779, "ARG_OF_PERICENTER": 276.3634, "MEAN_ANOMALY": 230.176, "EPHEMERIS_TYPE": 0, "CLASSIFICATION_TYPE": "U", "NORAD_CAT_ID": 66568, "ELEMENT_SET_NO": 999, "REV_AT_EPOCH": 302, "BSTAR": -0.0096263, "MEAN_MOTION_DOT": -0.01432596, "MEAN_MOTION_DDOT": 0}, "tle": {"line1": "1 66568U 25268M   25336.50006943 -.01432596  00000+0 -96263-2 0  9999", "line2": "2 66568  42.9971 181.8779 0001536 276.3634 230.1760 15.77074588  3028"}}, "geometry": {"type": "Point", "coordinates": [64.42228103103308, -40.17180523714875]}}, {"type": "Feature", "properties": {"norad_id": 66569, "name": "STARLINK-35835", "group": "last-30-days", "lat": -40.705474638804624, "lon": 66.8660266959481, "alt_km": 344.3186931648379, "timestamp": "2025-12-02T21:34:00.043239+00:00", "meta": {"OBJECT_NAME": "STARLINK-35835", "OBJECT_ID": "2025-268N", "EPOCH": "2025-12-02T12:00:05.998752", "MEAN_MOTION": 15.77083351, "ECCENTRICITY": 0.0001709, "INCLINATION": 42.9973, "RA_OF_ASC_NODE": 181.8728, "ARG_OF_PERICENTER": 271.3874, "MEAN_ANOMALY": 237.1131, "EPHEMERIS_TYPE": 0, "CLASSIFICATION_TYPE": "U", "NORAD_CAT_ID": 66569, "ELEMENT_SET_NO": 999, "REV_AT_EPOCH": 302, "BSTAR": -0.0099878, "MEAN_MOTION_DOT": -0.0148062, "MEAN_MOTION_DDOT": 0}, "tle": {"line1": "1 66569U 25268N   25336.50006943 -.01480620  00000+0 -99878-2 0  9996", "line2": "2 66569  42.9973 181.8728 0001709 271.3874 237.1131 15.77083351  3025"}}, "geometry": {"type": "Point", "coordinates": [66.8660266959481, -40.705474638804624]}}, {"type": "Feature", "properties": {"norad_id": 66570, "name": "STARLINK-35834", "group": "last-30-days", "lat": -41.19278767910814, "lon": 69.38308303913666, "alt_km": 344.6570083231736, "timestamp": "2025-12-02T21:34:00.043251+00:00", "meta": {"OBJECT_NAME": "STARLINK-35834", "OBJECT_ID": "2025-268P", "EPOCH": "2025-12-02T12:00:05.998752", "MEAN_MOTION": 15.77033772, "ECCENTRICITY": 0.0001528, "INCLINATION": 42.9973, "RA_OF_ASC_NODE": 181.868, "ARG_OF_PERICENTER": 272.0834, "MEAN_ANOMALY": 238.4756, "EPHEMERIS_TYPE": 0, "CLASSIFICATION_TYPE": "U", "NORAD_CAT_ID": 66570, "ELEMENT_SET_NO": 999, "REV_AT_EPOCH": 302, "BSTAR": -0.010221, "MEAN_MOTION_DOT": -0.01507833, "MEAN_MOTION_DDOT": 0}, "tle": {"line1": "1 66570U 25268P   25336.50006943 -.01507833  00000+0 -10221-1 0  9998", "line2": "2 66570  42.9973 181.8680 0001528 272.0834 238.4756 15.77033772  3026"}}, "geometry": {"type": "Point", "coordinates": [69.38308303913666, -41.19278767910814]}}]}